CCSDS_OMM_VERS = 2.0
CREATION_DATE  = 
ORIGINATOR     = 

OBJECT_NAME    = CZ-2C R/B
OBJECT_ID      = 2022-132E
CENTER_NAME    = EARTH
REF_FRAME      = TEME
TIME_SYSTEM    = UTC
MEAN_ELEMENT_THEORY = SGP/SGP4

EPOCH          = 2026-02-06T12:37:38.625600
MEAN_MOTION    = 15.59160423
ECCENTRICITY   = .0017877
INCLINATION    = 97.2960
RA_OF_ASC_NODE = 39.9673
ARG_OF_PERICENTER = 198.0437
MEAN_ANOMALY   = 162.0188

EPHEMERIS_TYPE = 0
CLASSIFICATION_TYPE = U
NORAD_CAT_ID   = 54039
ELEMENT_SET_NO = 999
REV_AT_EPOCH   = 18551
BSTAR          = .52774151E-3
MEAN_MOTION_DOT = .41635E-3
MEAN_MOTION_DDOT = 0

CCSDS_OMM_VERS = 2.0
CREATION_DATE  = 
ORIGINATOR     = 

OBJECT_NAME    = GSLV R/B
OBJECT_ID      = 2022-138AN
CENTER_NAME    = EARTH
REF_FRAME      = TEME
TIME_SYSTEM    = UTC
MEAN_ELEMENT_THEORY = SGP/SGP4

EPOCH          = 2026-02-05T21:28:35.911776
MEAN_MOTION    = 14.96529532
ECCENTRICITY   = .0019306
INCLINATION    = 87.3863
RA_OF_ASC_NODE = 177.0016
ARG_OF_PERICENTER = 266.8043
MEAN_ANOMALY   = 93.0979

EPHEMERIS_TYPE = 0
CLASSIFICATION_TYPE = U
NORAD_CAT_ID   = 54149
ELEMENT_SET_NO = 999
REV_AT_EPOCH   = 17917
BSTAR          = .41715E-3
MEAN_MOTION_DOT = .4785E-4
MEAN_MOTION_DDOT = 0

CCSDS_OMM_VERS = 2.0
CREATION_DATE  = 
ORIGINATOR     = 

OBJECT_NAME    = XRISM
OBJECT_ID      = 2023-137A
CENTER_NAME    = EARTH
REF_FRAME      = TEME
TIME_SYSTEM    = UTC
MEAN_ELEMENT_THEORY = SGP/SGP4

EPOCH          = 2026-02-06T08:02:10.646016
MEAN_MOTION    = 15.11106214
ECCENTRICITY   = .00079965
INCLINATION    = 31.0019
RA_OF_ASC_NODE = 126.4010
ARG_OF_PERICENTER = 85.4035
MEAN_ANOMALY   = 274.7516

EPHEMERIS_TYPE = 0
CLASSIFICATION_TYPE = U
NORAD_CAT_ID   = 57800
ELEMENT_SET_NO = 999
REV_AT_EPOCH   = 13304
BSTAR          = .4917917E-3
MEAN_MOTION_DOT = .8547E-4
MEAN_MOTION_DDOT = 0

CCSDS_OMM_VERS = 2.0
CREATION_DATE  = 
ORIGINATOR     = 

OBJECT_NAME    = ACS3
OBJECT_ID      = 2024-077B
CENTER_NAME    = EARTH
REF_FRAME      = TEME
TIME_SYSTEM    = UTC
MEAN_ELEMENT_THEORY = SGP/SGP4

EPOCH          = 2026-02-06T07:18:38.760192
MEAN_MOTION    = 13.88312200
ECCENTRICITY   = .0045433
INCLINATION    = 97.2244
RA_OF_ASC_NODE = 345.4715
ARG_OF_PERICENTER = 175.8701
MEAN_ANOMALY   = 184.2846

EPHEMERIS_TYPE = 0
CLASSIFICATION_TYPE = U
NORAD_CAT_ID   = 59588
ELEMENT_SET_NO = 999
REV_AT_EPOCH   = 8984
BSTAR          = .20265E-1
MEAN_MOTION_DOT = .24506E-3
MEAN_MOTION_DDOT = 0

CCSDS_OMM_VERS = 2.0
CREATION_DATE  = 
ORIGINATOR     = 

OBJECT_NAME    = SZ-21 MODULE
OBJECT_ID      = 2025-246C
CENTER_NAME    = EARTH
REF_FRAME      = TEME
TIME_SYSTEM    = UTC
MEAN_ELEMENT_THEORY = SGP/SGP4

EPOCH          = 2026-02-06T08:11:14.106336
MEAN_MOTION    = 15.66184885
ECCENTRICITY   = .00030134
INCLINATION    = 41.4763
RA_OF_ASC_NODE = 35.9805
ARG_OF_PERICENTER = 279.0982
MEAN_ANOMALY   = 80.9518

EPHEMERIS_TYPE = 0
CLASSIFICATION_TYPE = U
NORAD_CAT_ID   = 66515
ELEMENT_SET_NO = 999
REV_AT_EPOCH   = 1315
BSTAR          = .36895415E-3
MEAN_MOTION_DOT = .38963E-3
MEAN_MOTION_DDOT = 0

